#aV2011  1 18  0  0   .00000000      96 DD+AD WGS84 FIT  NGA
## 1619 172800.00000000   900.00000000 55579  .0000000000000
+   32     1  2  3  4  5  6  7  8  9 10 11 12 13 14 15 16 17
+         18 19 20 21 22 23 24 25 26 27 28 29 30 31 32  0  0
+          0  0  0  0  0  0  0  0  0  0  0  0  0  0  0  0  0
+          0  0  0  0  0  0  0  0  0  0  0  0  0  0  0  0  0
+          0  0  0  0  0  0  0  0  0  0  0  0  0  0  0  0  0
++         0  0  0  0  0  0  0  0  0  0  0  0  0  0  0  0  0
++         0  0  0  0  0  0  0  0  0  0  0  0  0  0  0  0  0
++         0  0  0  0  0  0  0  0  0  0  0  0  0  0  0  0  0
++         0  0  0  0  0  0  0  0  0  0  0  0  0  0  0  0  0
++         0  0  0  0  0  0  0  0  0  0  0  0  0  0  0  0  0
%c cc cc ccc ccc cccc cccc cccc cccc ccccc ccccc ccccc ccccc
%c cc cc ccc ccc cccc cccc cccc cccc ccccc ccccc ccccc ccccc
%f  0.0000000  0.000000000  0.00000000000  0.000000000000000
%f  0.0000000  0.000000000  0.00000000000  0.000000000000000
%i    0    0    0    0      0      0      0      0         0
%i    0    0    0    0      0      0      0      0         0
/*      NGA, ST. LOUIS,MO.                                  
/*   EPHEMERIS COMPUTED FROM  3 DAYS OF DATA                
/* CCCCCCCCCCCCCCCCCCCCCCCCCCCCCCCCCCCCCCCCCCCCCCCCCCCCCCCCC
/* CCCCCCCCCCCCCCCCCCCCCCCCCCCCCCCCCCCCCCCCCCCCCCCCCCCCCCCCC
*  2011  1 18  9 15   .00000000                                                 
P  1  23495.009928   6712.926400 -10681.465705   -201.061747                    
V  1 -13279.319307   2513.465641 -27791.031546      -.031838                    
P  2 -17537.145858   2533.470110 -19631.070820    315.352067                    
V  2  10199.584300 -23076.931212 -12557.286320       .021492                    
P  3  19282.979283   2814.951002  17779.439106    664.084265                    
V  3  13056.561240  19501.292531 -16545.223884       .051080                    
P  4 -13184.540412  -8780.187731 -21508.365444     11.753467                    
V  4  13191.889066 -23493.049877   1872.515893       .099914                    
P  5 -26465.555054   2086.609561   1895.675490   -100.688416                    
V  5  -2505.276397  -2821.452626 -31449.483073      -.059429                    
P  6  19776.320155   7529.527170  16328.636695    -17.265607                    
V  6   9780.554336  18074.468823 -20185.337075      -.293200                    
P  7   3402.004140 -23272.667668  12147.014938      2.009330                    
V  7   9362.250366 -12500.212499 -26777.326287       .006366                    
P  8  -4753.691876 -16564.313564  20054.243862      7.180615                    
V  8  14770.720940 -20831.082484 -14243.306057       .000103                    
P  9 -14869.272050  21211.962920   5287.703515     56.089754                    
V  9   1457.921216  -7572.563926  31292.486305       .024274                    
P 10 -22375.473323  -8541.999569 -12076.591979    -63.590098                    
V 10  14891.607680  -2346.308590 -26018.186953      -.011602                    
P 11  11195.657729 -22938.338593   6344.793146   -120.216802                    
V 11   2885.630354   9654.425607  28776.917353      -.029651                    
P 12 -18397.542607  10849.971855 -15646.497254    -34.774728                    
V 12 -19989.388456  -1567.212868  22520.349313       .033346                    
P 13  -3520.516758 -23642.720734 -11665.419529    285.506543                    
V 13   8034.394216  12258.637405 -27636.064623      -.012621                    
P 14  15164.369082  21325.848523  -4787.671992    124.664048                    
V 14   1274.633067   6410.416690  31418.446669       .029118                    
P 15  -9853.334013  12621.007051  21184.931200   -160.106413                    
V 15 -15066.586669 -22320.026330   6446.960322       .037829                    
P 16  26640.266905   1248.913834  -1602.871286   -143.608719                    
V 16  -2068.142117   2110.313206 -31788.246647      -.030319                    
P 17 -15007.652392 -21838.765431  -3022.462630    181.862005                    
V 17    280.308898  -4729.035903  31308.853770       .006724                    
P 18   5586.962188  15571.627692  21130.021237    116.584559                    
V 18 -26188.550527    719.419409   6113.625797       .020943                    
P 19  13317.461705  -7469.668146  21727.574172   -102.619759                    
V 19  12650.905140  24530.670422   1006.345406      -.035941                    
P 20  13559.243737 -14174.693215 -18024.596673     48.767971                    
V 20  22785.200911    579.927448  16888.516428      -.000751                    
P 21  -1552.155551  22912.946381  13164.132706   -117.515842                    
V 21 -10867.228920  12759.673882 -24804.019060      -.027364                    
P 22  17410.040565  12030.089972  16272.756882    154.856195                    
V 22 -20401.295323   2374.358860  20183.393587      -.009197                    
P 23   5269.637169 -17260.489022 -19372.047891    331.494647                    
V 23  13877.805389  20469.428728 -14790.551653      -.022647                    
P 24  15547.381059 -21147.954287   3044.773154    357.532876                    
V 24    906.776644   5050.782473  31323.652622       .032962                    
P 25  -3100.550378  15171.745555 -21592.951561    -64.186399                    
V 25 -27372.630300    708.185229   4432.262448      -.019325                    
P 26 -16379.136074  -2638.265382  20274.201012    -99.022278                    
V 26 -11773.673988 -24159.362470 -11908.734370      -.091880                    
P 27 -17167.951361  16206.019762  12566.650915    228.130688                    
V 27   4840.847853 -14271.011415  26714.931778       .037763                    
P 28 -13991.790318 -13120.667766  18997.961412     15.168341                    
V 28  22950.692626   -674.070871  16625.048241       .019006                    
P 29   2178.653693  22822.772081 -13362.077466    178.856476                    
V 29 -10319.872749 -13790.471045 -25051.627895       .027135                    
P 30  24821.799561   4485.872556  -8810.782946    314.506312                    
V 30 -10393.546533   3237.744313 -29017.149600       .035241                    
P 31  13374.283434   6226.202238 -21875.024571     31.052715                    
V 31 -13656.957682  24717.558982  -1108.616698       .043293                    
P 32  21466.389080  -7816.047013 -12907.832942   -177.565688                    
V 32  16840.951959   3767.666561  25539.498294      -.080833                    
EOF
